{"type": "FeatureCollection", "features": [ {"type": "Feature", "properties": {"norad_id": 31010, "name": "FENGYUN 1C DEB", "group": "fengyun-1c-debris", "lat": 50.26421048287418, "lon": 125.45263236331833, "alt_km": 771.4913334222219, "timestamp": "2025-12-17T09:00:17.428397+00:00", "meta": {"OBJECT_NAME": "FENGYUN 1C DEB", "OBJECT_ID": "1999-025BDC", "EPOCH": "2025-12-16T09:11:25.666080", "MEAN_MOTION": 14.25861297, "ECCENTRICITY": 0.01133968, "INCLINATION": 101.7243, "RA_OF_ASC_NODE": 138.5959, "ARG_OF_PERICENTER": 344.8959, "MEAN_ANOMALY": 14.8834, "EPHEMERIS_TYPE": 0, "CLASSIFICATION_TYPE": "U", "NORAD_CAT_ID": 31010, "ELEMENT_SET_NO": 999, "REV_AT_EPOCH": 95681, "BSTAR": 0.0022654487, "MEAN_MOTION_DOT": 5.704e-05, "MEAN_MOTION_DDOT": 0}, "tle": {"line1": "1 31010U 99025BDC 25350.38293595  .00005704  00000+0  22654-2 0  9995", "line2": "2 31010 101.7243 138.5959 0113396 344.8959  14.8834 14.25861297956812"}}, "geometry": {"type": "Point", "coordinates": [125.45263236331833, 50.26421048287418]}}, {"type": "Feature", "properties": {"norad_id": 31012, "name": "FENGYUN 1C DEB", "group": "fengyun-1c-debris", "lat": -5.238220748050634, "lon": 68.74346928266024, "alt_km": 766.7430541248905, "timestamp": "2025-12-17T09:00:17.428407+00:00", "meta": {"OBJECT_NAME": "FENGYUN 1C DEB", "OBJECT_ID": "1999-025BDE", "EPOCH": "2025-12-15T11:34:46.406784", "MEAN_MOTION": 14.27865689, "ECCENTRICITY": 0.00813642, "INCLINATION": 98.9116, "RA_OF_ASC_NODE": 247.6374, "ARG_OF_PERICENTER": 243.3596, "MEAN_ANOMALY": 298.866, "EPHEMERIS_TYPE": 0, "CLASSIFICATION_TYPE": "U", "NORAD_CAT_ID": 31012, "ELEMENT_SET_NO": 999, "REV_AT_EPOCH": 97786, "BSTAR": 0.00018971931, "MEAN_MOTION_DOT": 4.39e-06, "MEAN_MOTION_DDOT": 0}, "tle": {"line1": "1 31012U 99025BDE 25349.48248156  .00000439  00000+0  18972-3 0  9998", "line2": "2 31012  98.9116 247.6374 0081364 243.3596 298.8660 14.27865689977862"}}, "geometry": {"type": "Point", "coordinates": [68.74346928266024, -5.238220748050634]}}, {"type": "Feature", "properties": {"norad_id": 31014, "name": "FENGYUN 1C DEB", "group": "fengyun-1c-debris", "lat": -45.635454086458246, "lon": -23.98145300507108, "alt_km": 949.2058634034274, "timestamp": "2025-12-17T09:00:17.428417+00:00", "meta": {"OBJECT_NAME": "FENGYUN 1C DEB", "OBJECT_ID": "1999-025BDG", "EPOCH": "2025-12-16T21:31:10.718112", "MEAN_MOTION": 13.98493373, "ECCENTRICITY": 0.00879881, "INCLINATION": 98.869, "RA_OF_ASC_NODE": 326.3697, "ARG_OF_PERICENTER": 181.9029, "MEAN_ANOMALY": 243.1225, "EPHEMERIS_TYPE": 0, "CLASSIFICATION_TYPE": "U", "NORAD_CAT_ID": 31014, "ELEMENT_SET_NO": 999, "REV_AT_EPOCH": 95894, "BSTAR": 9.4440037e-05, "MEAN_MOTION_DOT": 9.7e-07, "MEAN_MOTION_DDOT": 0}, "tle": {"line1": "1 31014U 99025BDG 25350.89665183  .00000097  00000+0  94440-4 0  9995", "line2": "2 31014  98.8690 326.3697 0087988 181.9029 243.1225 13.98493373958941"}}, "geometry": {"type": "Point", "coordinates": [-23.98145300507108, -45.635454086458246]}}, {"type": "Feature", "properties": {"norad_id": 31016, "name": "FENGYUN 1C DEB", "group": "fengyun-1c-debris", "lat": -58.45730029050775, "lon": 173.07212179826237, "alt_km": 722.0189059058839, "timestamp": "2025-12-17T09:00:17.428427+00:00", "meta": {"OBJECT_NAME": "FENGYUN 1C DEB", "OBJECT_ID": "1999-025BDJ", "EPOCH": "2025-12-16T23:46:21.194112", "MEAN_MOTION": 14.30501534, "ECCENTRICITY": 0.01120083, "INCLINATION": 98.4362, "RA_OF_ASC_NODE": 6.6903, "ARG_OF_PERICENTER": 261.4884, "MEAN_ANOMALY": 158.5116, "EPHEMERIS_TYPE": 0, "CLASSIFICATION_TYPE": "U", "NORAD_CAT_ID": 31016, "ELEMENT_SET_NO": 999, "REV_AT_EPOCH": 97531, "BSTAR": 0.00025479662, "MEAN_MOTION_DOT": 6.66e-06, "MEAN_MOTION_DDOT": 0}, "tle": {"line1": "1 31016U 99025BDJ 25350.99052308  .00000666  00000+0  25480-3 0  9996", "line2": "2 31016  98.4362   6.6903 0112008 261.4884 158.5116 14.30501534975312"}}, "geometry": {"type": "Point", "coordinates": [173.07212179826237, -58.45730029050775]}}, {"type": "Feature", "properties": {"norad_id": 31017, "name": "FENGYUN 1C DEB", "group": "fengyun-1c-debris", "lat": -36.23898874960702, "lon": 150.9055764641728, "alt_km": 910.4084594005544, "timestamp": "2025-12-17T09:00:17.428437+00:00", "meta": {"OBJECT_NAME": "FENGYUN 1C DEB", "OBJECT_ID": "1999-025BDK", "EPOCH": "2025-12-16T22:02:05.881632", "MEAN_MOTION": 14.08829623, "ECCENTRICITY": 0.01130028, "INCLINATION": 98.68, "RA_OF_ASC_NODE": 336.8939, "ARG_OF_PERICENTER": 338.3565, "MEAN_ANOMALY": 82.4842, "EPHEMERIS_TYPE": 0, "CLASSIFICATION_TYPE": "U", "NORAD_CAT_ID": 31017, "ELEMENT_SET_NO": 999, "REV_AT_EPOCH": 96355, "BSTAR": 0.00042329082, "MEAN_MOTION_DOT": 7.32e-06, "MEAN_MOTION_DDOT": 0}, "tle": {"line1": "1 31017U 99025BDK 25350.91812363  .00000732  00000+0  42329-3 0  9999", "line2": "2 31017  98.6800 336.8939 0113002 338.3565  82.4842 14.08829623963555"}}, "geometry": {"type": "Point", "coordinates": [150.9055764641728, -36.23898874960702]}}, {"type": "Feature", "properties": {"norad_id": 31018, "name": "FENGYUN 1C DEB", "group": "fengyun-1c-debris", "lat": -35.98783850350177, "lon": -108.4142154528133, "alt_km": 851.5460332342818, "timestamp": "2025-12-17T09:00:17.428448+00:00", "meta": {"OBJECT_NAME": "FENGYUN 1C DEB", "OBJECT_ID": "1999-025BDL", "EPOCH": "2025-12-16T04:52:37.310304", "MEAN_MOTION": 14.16947738, "ECCENTRICITY": 0.00589299, "INCLINATION": 99.0253, "RA_OF_ASC_NODE": 77.025, "ARG_OF_PERICENTER": 116.323, "MEAN_ANOMALY": 244.4013, "EPHEMERIS_TYPE": 0, "CLASSIFICATION_TYPE": "U", "NORAD_CAT_ID": 31018, "ELEMENT_SET_NO": 999, "REV_AT_EPOCH": 96104, "BSTAR": 0.001175869, "MEAN_MOTION_DOT": 2.356e-05, "MEAN_MOTION_DDOT": 0}, "tle": {"line1": "1 31018U 99025BDL 25350.20320961  .00002356  00000+0  11759-2 0  9996", "line2": "2 31018  99.0253  77.0250 0058929 116.3230 244.4013 14.16947738961041"}}, "geometry": {"type": "Point", "coordinates": [-108.4142154528133, -35.98783850350177]}}, {"type": "Feature", "properties": {"norad_id": 31019, "name": "FENGYUN 1C DEB", "group": "fengyun-1c-debris", "lat": -67.96807169351736, "lon": -150.03209721167008, "alt_km": 882.6073579862295, "timestamp": "2025-12-17T09:00:17.428461+00:00", "meta": {"OBJECT_NAME": "FENGYUN 1C DEB", "OBJECT_ID": "1999-025BDM", "EPOCH": "2025-12-14T12:29:53.523168", "MEAN_MOTION": 11.82979343, "ECCENTRICITY": 0.11186799, "INCLINATION": 98.7007, "RA_OF_ASC_NODE": 185.8561, "ARG_OF_PERICENTER": 280.0441, "MEAN_ANOMALY": 96.2635, "EPHEMERIS_TYPE": 0, "CLASSIFICATION_TYPE": "U", "NORAD_CAT_ID": 31019, "ELEMENT_SET_NO": 999, "REV_AT_EPOCH": 55202, "BSTAR": 0.0035282557, "MEAN_MOTION_DOT": 1.297e-05, "MEAN_MOTION_DDOT": 0}, "tle": {"line1": "1 31019U 99025BDM 25348.52075837  .00001297  00000+0  35283-2 0  9999", "line2": "2 31019  98.7007 185.8561 1118679 280.0441  96.2635 11.82979343552025"}}, "geometry": {"type": "Point", "coordinates": [-150.03209721167008, -67.96807169351736]}}, {"type": "Feature", "properties": {"norad_id": 31021, "name": "FENGYUN 1C DEB", "group": "fengyun-1c-debris", "lat": -74.96811400558919, "lon": -111.13706914524973, "alt_km": 487.66464468835693, "timestamp": "2025-12-17T09:00:17.428471+00:00", "meta": {"OBJECT_NAME": "FENGYUN 1C DEB", "OBJECT_ID": "1999-025BDP", "EPOCH": "2025-12-14T13:05:53.511072", "MEAN_MOTION": 14.75277457, "ECCENTRICITY": 0.02681864, "INCLINATION": 98.3471, "RA_OF_ASC_NODE": 99.084, "ARG_OF_PERICENTER": 236.1155, "MEAN_ANOMALY": 121.428, "EPHEMERIS_TYPE": 0, "CLASSIFICATION_TYPE": "U", "NORAD_CAT_ID": 31021, "ELEMENT_SET_NO": 999, "REV_AT_EPOCH": 73459, "BSTAR": 0.00058085842, "MEAN_MOTION_DOT": 7.026e-05, "MEAN_MOTION_DDOT": 0}, "tle": {"line1": "1 31021U 99025BDP 25348.54575823  .00007026  00000+0  58086-3 0  9997", "line2": "2 31021  98.3471  99.0840 0268186 236.1155 121.4280 14.75277457734590"}}, "geometry": {"type": "Point", "coordinates": [-111.13706914524973, -74.96811400558919]}}, {"type": "Feature", "properties": {"norad_id": 31022, "name": "FENGYUN 1C DEB", "group": "fengyun-1c-debris", "lat": 5.038973388792319, "lon": 55.988387077205964, "alt_km": 894.9231060442489, "timestamp": "2025-12-17T09:00:17.428482+00:00", "meta": {"OBJECT_NAME": "FENGYUN 1C DEB", "OBJECT_ID": "1999-025BDQ", "EPOCH": "2025-12-15T11:16:35.290560", "MEAN_MOTION": 13.90450463, "ECCENTRICITY": 0.01100507, "INCLINATION": 99.5164, "RA_OF_ASC_NODE": 233.1913, "ARG_OF_PERICENTER": 114.54, "MEAN_ANOMALY": 246.7276, "EPHEMERIS_TYPE": 0, "CLASSIFICATION_TYPE": "U", "NORAD_CAT_ID": 31022, "ELEMENT_SET_NO": 999, "REV_AT_EPOCH": 62046, "BSTAR": 0.00047365364, "MEAN_MOTION_DOT": 5.72e-06, "MEAN_MOTION_DDOT": 0}, "tle": {"line1": "1 31022U 99025BDQ 25349.46985290  .00000572  00000+0  47365-3 0  9990", "line2": "2 31022  99.5164 233.1913 0110050 114.5400 246.7276 13.90450463620465"}}, "geometry": {"type": "Point", "coordinates": [55.988387077205964, 5.038973388792319]}}, {"type": "Feature", "properties": {"norad_id": 31024, "name": "FENGYUN 1C DEB", "group": "fengyun-1c-debris", "lat": -17.125424138226276, "lon": 82.00883959000316, "alt_km": 822.8430617821487, "timestamp": "2025-12-17T09:00:17.428492+00:00", "meta": {"OBJECT_NAME": "FENGYUN 1C DEB", "OBJECT_ID": "1999-025BDS", "EPOCH": "2025-12-16T05:02:46.636800", "MEAN_MOTION": 14.20863582, "ECCENTRICITY": 0.00752885, "INCLINATION": 99.0423, "RA_OF_ASC_NODE": 263.6297, "ARG_OF_PERICENTER": 114.8135, "MEAN_ANOMALY": 246.0896, "EPHEMERIS_TYPE": 0, "CLASSIFICATION_TYPE": "U", "NORAD_CAT_ID": 31024, "ELEMENT_SET_NO": 999, "REV_AT_EPOCH": 96753, "BSTAR": 0.00026546706, "MEAN_MOTION_DOT": 5.45e-06, "MEAN_MOTION_DDOT": 0}, "tle": {"line1": "1 31024U 99025BDS 25350.21026200  .00000545  00000+0  26547-3 0  9993", "line2": "2 31024  99.0423 263.6297 0075288 114.8135 246.0896 14.20863582967531"}}, "geometry": {"type": "Point", "coordinates": [82.00883959000316, -17.125424138226276]}}]}